{"fetched_at":"2026-07-16T06:43:22.484Z","source":"https://celestrak.org/NORAD/elements/gp.php?NAME=STRIX&FORMAT=JSON","constellation":"synspective","records":[{"OBJECT_NAME":"STRIX-1","OBJECT_ID":"2022-113A","EPOCH":"2026-07-15T23:04:04.116864","CLASSIFICATION_TYPE":"U","MEAN_MOTION":15.41023687,"ECCENTRICITY":0.00055307,"INCLINATION":97.4477,"RA_OF_ASC_NODE":259.521,"ARG_OF_PERICENTER":130.051,"MEAN_ANOMALY":230.1222,"EPHEMERIS_TYPE":0,"NORAD_CAT_ID":53815,"ELEMENT_SET_NO":999,"REV_AT_EPOCH":21187,"BSTAR":0.00033604371,"MEAN_MOTION_DOT":0.00013795,"MEAN_MOTION_DDOT":0},{"OBJECT_NAME":"STRIX-3","OBJECT_ID":"2024-047A","EPOCH":"2026-07-15T22:53:47.898240","CLASSIFICATION_TYPE":"U","MEAN_MOTION":15.19817344,"ECCENTRICITY":0.00119026,"INCLINATION":97.6636,"RA_OF_ASC_NODE":173.065,"ARG_OF_PERICENTER":332.146,"MEAN_ANOMALY":27.9136,"EPHEMERIS_TYPE":0,"NORAD_CAT_ID":59224,"ELEMENT_SET_NO":999,"REV_AT_EPOCH":12911,"BSTAR":0.00022481927,"MEAN_MOTION_DOT":0.00004753,"MEAN_MOTION_DDOT":0},{"OBJECT_NAME":"STRIX-4","OBJECT_ID":"2024-137A","EPOCH":"2026-07-15T22:52:56.484192","CLASSIFICATION_TYPE":"U","MEAN_MOTION":15.33327789,"ECCENTRICITY":0.00162017,"INCLINATION":43.0152,"RA_OF_ASC_NODE":121.2455,"ARG_OF_PERICENTER":137.0364,"MEAN_ANOMALY":223.1758,"EPHEMERIS_TYPE":0,"NORAD_CAT_ID":60352,"ELEMENT_SET_NO":999,"REV_AT_EPOCH":10843,"BSTAR":0.00029446709,"MEAN_MOTION_DOT":0.00009452,"MEAN_MOTION_DDOT":0},{"OBJECT_NAME":"STRIX-2","OBJECT_ID":"2024-248A","EPOCH":"2026-07-15T23:36:12.696192","CLASSIFICATION_TYPE":"U","MEAN_MOTION":15.09194848,"ECCENTRICITY":0.00137338,"INCLINATION":97.6299,"RA_OF_ASC_NODE":152.4641,"ARG_OF_PERICENTER":232.6322,"MEAN_ANOMALY":127.3656,"EPHEMERIS_TYPE":0,"NORAD_CAT_ID":62406,"ELEMENT_SET_NO":999,"REV_AT_EPOCH":8593,"BSTAR":0.00014927359,"MEAN_MOTION_DOT":0.00002312,"MEAN_MOTION_DDOT":0},{"OBJECT_NAME":"STRIX-5","OBJECT_ID":"2025-229A","EPOCH":"2026-07-15T06:00:27.978912","CLASSIFICATION_TYPE":"U","MEAN_MOTION":15.04589068,"ECCENTRICITY":0.00378707,"INCLINATION":41.9273,"RA_OF_ASC_NODE":131.7609,"ARG_OF_PERICENTER":237.8606,"MEAN_ANOMALY":121.8542,"EPHEMERIS_TYPE":0,"NORAD_CAT_ID":65971,"ELEMENT_SET_NO":999,"REV_AT_EPOCH":4120,"BSTAR":0.00013606849,"MEAN_MOTION_DOT":0.00001775,"MEAN_MOTION_DDOT":0},{"OBJECT_NAME":"STRIX-6","OBJECT_ID":"2026-056A","EPOCH":"2026-07-15T18:27:01.548288","CLASSIFICATION_TYPE":"U","MEAN_MOTION":15.00329312,"ECCENTRICITY":0.00166257,"INCLINATION":50.2827,"RA_OF_ASC_NODE":214.6701,"ARG_OF_PERICENTER":353.2933,"MEAN_ANOMALY":6.7792,"EPHEMERIS_TYPE":0,"NORAD_CAT_ID":68291,"ELEMENT_SET_NO":999,"REV_AT_EPOCH":1756,"BSTAR":0.000099925822,"MEAN_MOTION_DOT":0.00001002,"MEAN_MOTION_DDOT":0},{"OBJECT_NAME":"STRIX-7","OBJECT_ID":"2026-112A","EPOCH":"2026-07-15T21:55:22.765152","CLASSIFICATION_TYPE":"U","MEAN_MOTION":15.01611212,"ECCENTRICITY":0.0024805,"INCLINATION":44.9081,"RA_OF_ASC_NODE":41.5534,"ARG_OF_PERICENTER":211.6483,"MEAN_ANOMALY":148.2898,"EPHEMERIS_TYPE":0,"NORAD_CAT_ID":69177,"ELEMENT_SET_NO":999,"REV_AT_EPOCH":819,"BSTAR":0.00015381402,"MEAN_MOTION_DOT":0.00001804,"MEAN_MOTION_DDOT":0},{"OBJECT_NAME":"STRIX-8","OBJECT_ID":"2026-146A","EPOCH":"2026-07-15T21:11:12.677568","CLASSIFICATION_TYPE":"U","MEAN_MOTION":15.04437487,"ECCENTRICITY":0.00070799,"INCLINATION":41.9903,"RA_OF_ASC_NODE":9.2842,"ARG_OF_PERICENTER":27.3338,"MEAN_ANOMALY":332.7861,"EPHEMERIS_TYPE":0,"NORAD_CAT_ID":69701,"ELEMENT_SET_NO":999,"REV_AT_EPOCH":288,"BSTAR":0.00017369955,"MEAN_MOTION_DOT":0.00002279,"MEAN_MOTION_DDOT":0}]}
