STRIX-1                 
1 53815U 22113A   26196.96115876  .00013795  00000+0  33604-3 0  9991
2 53815  97.4477 259.5210 0005530 130.0510 230.1222 15.41023687211877
STRIX-3                 
1 59224U 24047A   26196.95402660  .00004753  00000+0  22482-3 0  9994
2 59224  97.6636 173.0650 0011902 332.1460  27.9136 15.19817344129110
STRIX-4                 
1 60352U 24137A   26196.95343153  .00009452  00000+0  29447-3 0  9998
2 60352  43.0152 121.2455 0016201 137.0364 223.1758 15.33327789108439
STRIX-2                 
1 62406U 24248A   26196.98348028  .00002312  00000+0  14927-3 0  9997
2 62406  97.6299 152.4641 0013733 232.6322 127.3656 15.09194848 85936
STRIX-5                 
1 65971U 25229A   26196.25032383  .00001775  00000+0  13607-3 0  9997
2 65971  41.9273 131.7609 0037870 237.8606 121.8542 15.04589068 41206
STRIX-6                 
1 68291U 26056A   26196.76876792  .00001002  00000+0  99926-4 0  9992
2 68291  50.2827 214.6701 0016625 353.2933   6.7792 15.00329312 17567
STRIX-7                 
1 69177U 26112A   26196.91345793  .00001804  00000+0  15381-3 0  9990
2 69177  44.9081  41.5534 0024805 211.6483 148.2898 15.01611212  8192
STRIX-8                 
1 69701U 26146A   26196.88278562  .00002279  00000+0  17370-3 0  9992
2 69701  41.9903   9.2842 0007079  27.3338 332.7861 15.04437487  2886
